[{"OBJECT_NAME":"STARLINK-32243","OBJECT_ID":"2024-138N","EPOCH":"2026-03-09T22:20:50.063136","MEAN_MOTION":15.30186409,"ECCENTRICITY":0.00011117,"INCLINATION":53.161,"RA_OF_ASC_NODE":308.5466,"ARG_OF_PERICENTER":78.3415,"MEAN_ANOMALY":281.7711,"EPHEMERIS_TYPE":0,"CLASSIFICATION_TYPE":"U","NORAD_CAT_ID":60367,"ELEMENT_SET_NO":999,"REV_AT_EPOCH":9066,"BSTAR":7.2806564e-5,"MEAN_MOTION_DOT":1.797e-5,"MEAN_MOTION_DDOT":0},{"OBJECT_NAME":"YAM-7","OBJECT_ID":"2024-149AN","EPOCH":"2026-03-09T17:13:55.117920","MEAN_MOTION":15.30304554,"ECCENTRICITY":0.00019733,"INCLINATION":97.3828,"RA_OF_ASC_NODE":149.4631,"ARG_OF_PERICENTER":296.5121,"MEAN_ANOMALY":63.5918,"EPHEMERIS_TYPE":0,"CLASSIFICATION_TYPE":"U","NORAD_CAT_ID":60504,"ELEMENT_SET_NO":999,"REV_AT_EPOCH":8683,"BSTAR":0.00030984439,"MEAN_MOTION_DOT":9.009e-5,"MEAN_MOTION_DDOT":0}]
